FFLY01                  
1 65320U 25188F   25253.40787324  .00001377  00000+0  15005-3 0  9993
2 65320  97.7681 327.9737 0004345  75.4547 284.7153 14.89562137  2178
2025-188G               
1 65321U 25188G   25253.40881963  .00002309  00000+0  24823-3 0  9992
2 65321  97.7673 327.9715 0004318  68.2322 291.9355 14.89487478  2175
FFLY02                  
1 65322U 25188H   25253.14101964  .00001514  00000+0  16507-3 0  9997
2 65322  97.7670 327.7042 0004432  63.5680 296.5992 14.89407848  2133
STARLINK-34899          
1 65323U 25189A   25253.58335648 -.01748143  00000+0 -14315-1 0  9997
2 65323  53.1586 328.7064 0001338  56.9857  23.3134 15.72937299  3478
STARLINK-34196          
1 65324U 25189B   25253.58335648 -.01453786  00000+0 -11189-1 0  9990
2 65324  53.1578 329.0200 0001048  93.8442 195.7877 15.74297815  3411
STARLINK-34911          
1 65325U 25189C   25253.58335648 -.01428439  00000+0 -10979-1 0  9994
2 65325  53.1580 329.0158 0000782  81.2966 210.2603 15.74278405  3473
STARLINK-34902          
1 65326U 25189D   25253.58335648 -.01435366  00000+0 -11037-1 0  9998
2 65326  53.1575 329.0078 0000435  79.2331 216.1463 15.74286361  3476
STARLINK-34880          
1 65327U 25189E   25253.58335648 -.01445344  00000+0 -11119-1 0  9997
2 65327  53.1580 329.0279 0000752  81.7596 204.0395 15.74291912  3477
STARLINK-34885          
1 65328U 25189F   25253.58335648 -.01439378  00000+0 -11068-1 0  9991
2 65328  53.1578 329.0239 0000725  86.6928 201.0204 15.74289781  3415
STARLINK-34908          
1 65329U 25189G   25253.58335648 -.01448354  00000+0 -11143-1 0  9990
2 65329  53.1577 329.0118 0000425  69.0966 224.3561 15.74299860  3474
STARLINK-34864          
1 65330U 25189H   25253.58335648 -.01447135  00000+0 -11130-1 0  9994
2 65330  53.1579 328.9956 0001208  72.9535 228.1686 15.74297776  3475
STARLINK-34918          
1 65331U 25189J   25253.58335648 -.01478156  00000+0 -11395-1 0  9995
2 65331  53.1580 328.9149 0001127  71.6419 268.2345 15.74311162  3416
STARLINK-33890          
1 65332U 25189K   25253.58335648 -.01471910  00000+0 -11343-1 0  9990
2 65332  53.1581 328.9070 0000878  82.7755 260.9359 15.74307957  3410
STARLINK-34602          
1 65333U 25189L   25253.58335648 -.01456054  00000+0 -11210-1 0  9996
2 65333  53.1575 328.9225 0000577  68.8236 267.4866 15.74299832  3474
STARLINK-34878          
1 65334U 25189M   25253.58335648 -.01427606  00000+0 -10972-1 0  9992
2 65334  53.1579 329.0035 0001018  75.1058 222.2057 15.74274879  3479
STARLINK-34874          
1 65335U 25189N   25253.58335648 -.01483078  00000+0 -11437-1 0  9995
2 65335  53.1580 328.9110 0000820  87.3232 254.4673 15.74316022  3471
STARLINK-34835          
1 65336U 25189P   25253.58335648 -.01465765  00000+0 -11294-1 0  9990
2 65336  53.1579 328.9797 0000706  95.0822 213.7267 15.74299459  3476
STARLINK-34854          
1 65337U 25189Q   25253.58335648 -.01450180  00000+0 -11163-1 0  9991
2 65337  53.1581 328.9760 0000894  63.4666 247.2628 15.74288342  3419
STARLINK-34751          
1 65338U 25189R   25253.58335648 -.01474326  00000+0 -11364-1 0  9993
2 65338  53.1576 328.9715 0001002  97.4243 215.2158 15.74306874  3474
STARLINK-34777          
1 65339U 25189S   25253.58335648 -.01459187  00000+0 -11237-1 0  9991
2 65339  53.1575 328.9677 0000953  78.2445 236.3134 15.74296921  3475
STARLINK-35020          
1 65340U 25189T   25253.58335648 -.01455709  00000+0 -11205-1 0  9994
2 65340  53.1576 328.9632 0001245  80.2804 236.1900 15.74296372  3419
STARLINK-35016          
1 65341U 25189U   25253.58335648 -.01442431  00000+0 -11099-1 0  9994
2 65341  53.1575 328.9593 0000329  66.7138 251.6809 15.74284531  3410
STARLINK-35092          
1 65342U 25189V   25253.58335648 -.01466636  00000+0 -11299-1 0  9990
2 65342  53.1575 328.9554 0001247  92.6913 227.6199 15.74299333  3317
STARLINK-34838          
1 65343U 25189W   25253.58335648 -.01470506  00000+0 -11333-1 0  9991
2 65343  53.1581 328.9026 0000523  93.2963 252.3300 15.74306550  3473
STARLINK-35088          
1 65344U 25189X   25253.58335648 -.01464720  00000+0 -11286-1 0  9990
2 65344  53.1579 328.9362 0000509 100.6177 229.2738 15.74299544  3470
STARLINK-34831          
1 65345U 25189Y   25253.58335648 -.01482097  00000+0 -11430-1 0  9999
2 65345  53.1579 328.9276 0000770  84.8781 248.8432 15.74313548  3478
STARLINK-34873          
1 65346U 25189Z   25253.58335648 -.01536470  00000+0 -11878-1 0  9991
2 65346  53.1577 328.9517 0000859  56.7239 265.4437 15.74373481  3471
STARLINK-34881          
1 65347U 25189AA  25253.58335648 -.01463833  00000+0 -11279-1 0  9999
2 65347  53.1581 328.9398 0000419  92.0995 235.8746 15.74299558  3474
STARLINK-34859          
1 65348U 25189AB  25253.58335648 -.01459621  00000+0 -11242-1 0  9990
2 65348  53.1576 328.9441 0000805  69.2012 256.8622 15.74295156  3479
STARLINK-34895          
1 65349U 25189AC  25253.58335648 -.01483513  00000+0 -11441-1 0  9999
2 65349  53.1579 328.9318 0000748  89.6000 242.1996 15.74316132  3419
STARLINK-34892          
1 65350U 25189AD  25253.58335648 -.01487480  00000+0 -11473-1 0  9993
2 65350  53.1579 328.9234 0001211  69.0398 266.5940 15.74317566  3417
STARLINK-34985          
1 65379U 25191A   25253.58335648  .00016464  00000+0  99870-4 0  9994
2 65379  97.5940 121.7304 0001546  85.4793 257.9420 15.77628550  3048
STARLINK-35051          
1 65380U 25191B   25253.58335648  .00028714  00000+0  17338-3 0  9995
2 65380  97.5936 121.7310 0001383  89.0400 256.3048 15.77616776  3042
STARLINK-35028          
1 65381U 25191C   25253.58335648  .00006417  00000+0  39500-4 0  9998
2 65381  97.5937 121.7315 0001537  88.1425 259.1193 15.77630910  3045
STARLINK-35032          
1 65382U 25191D   25253.58335648 -.00001441  00000+0 -78039-5 0  9994
2 65382  97.5939 121.7340 0001592  94.9689 254.2124 15.77632789  3040
STARLINK-35054          
1 65383U 25191E   25253.58335648 -.00020315  00000+0 -12171-3 0  9999
2 65383  97.5939 121.7332 0001399  86.9145 264.1809 15.77646241  2828
STARLINK-35012          
1 65384U 25191F   25253.58335648  .00010205  00000+0  62274-4 0  9995
2 65384  97.5942 121.7346 0001487  84.2892 268.7307 15.77631350  3049
STARLINK-35073          
1 65385U 25191G   25253.58335648  .00009238  00000+0  56463-4 0  9993
2 65385  97.5940 121.7360 0001560  82.1369 274.7285 15.77631411  3042
STARLINK-35066          
1 65386U 25191H   25253.58335648 -.00034573  00000+0 -20793-3 0  9992
2 65386  97.5942 121.7347 0001634  78.8803 276.0533 15.77661454  2935
STARLINK-34703          
1 65387U 25191J   25253.58335648  .00054914  00000+0  32969-3 0  9990
2 65387  97.5939 121.7367 0001603  79.3642 279.4081 15.77622261  3048
STARLINK-34957          
1 65388U 25191K   25253.58335648 -.00190637  00000+0 -11655-2 0  9994
2 65388  97.5940 121.7383 0001410  83.3948 277.2230 15.77774924  3045
STARLINK-34993          
1 65389U 25191L   25253.58335648  .00096142  00000+0  57439-3 0  9990
2 65389  97.5941 121.7389 0000803  94.5867 268.0300 15.77599988  3043
STARLINK-35083          
1 65390U 25191M   25253.58335648  .00077816  00000+0  46661-3 0  9994
2 65390  97.5938 121.7393 0001372 111.1450 253.4468 15.77572611  3049
STARLINK-34786          
1 65391U 25191N   25253.58335648  .00319783  00000+0  18618-2 0  9997
2 65391  97.5942 121.7409 0001186  81.8037 284.6258 15.77568064  3040
STARLINK-35082          
1 65392U 25191P   25253.58335648 -.00011219  00000+0 -66748-4 0  9992
2 65392  97.5940 121.7408 0001640  81.9061 286.4806 15.77645650  3047
STARLINK-35097          
1 65393U 25191Q   25253.58335648  .00008050  00000+0  49326-4 0  9993
2 65393  97.5945 121.7421 0001417  74.0591 296.2471 15.77629169  2820
STARLINK-35058          
1 65394U 25191R   25253.58335648 -.00023043  00000+0 -13815-3 0  9998
2 65394  97.5941 121.7437 0001456  84.4155 287.7959 15.77654663  3046
STARLINK-35094          
1 65395U 25191S   25253.58335648 -.00032274  00000+0 -19410-3 0  9992
2 65395  97.5946 121.7435 0001414  89.1051 285.0417 15.77649691  3046
STARLINK-34811          
1 65396U 25191T   25253.58335648 -.00023624  00000+0 -14167-3 0  9996
2 65396  97.5944 121.7447 0001329  96.7922 279.2726 15.77654870  3047
STARLINK-34940          
1 65397U 25191U   25253.58335648 -.00024235  00000+0 -14540-3 0  9991
2 65397  97.5941 121.7453 0001390  89.9918 287.9943 15.77649986  3048
STARLINK-34931          
1 65398U 25191V   25253.58335648 -.00048683  00000+0 -29362-3 0  9993
2 65398  97.5944 121.7462 0001478  86.4649 293.4376 15.77663195  3042
STARLINK-34836          
1 65399U 25191W   25253.58335648 -.00054556  00000+0 -32926-3 0  9990
2 65399  97.5946 121.7479 0001589  81.5738 300.2446 15.77670459  2989
STARLINK-34876          
1 65400U 25191X   25253.58335648 -.00042422  00000+0 -25559-3 0  9996
2 65400  97.5947 121.7494 0001496  83.5858 302.0795 15.77660220  2939
STARLINK-34909          
1 65401U 25191Y   25253.58335648  .00013316  00000+0  80968-4 0  9991
2 65401  97.5944 121.7482 0001617  88.2106 295.5370 15.77629913  3049
STARLINK-34848          
1 65402U 25191Z   25253.58335648 -.00014846  00000+0 -88678-4 0  9999
2 65402  97.5948 121.7500 0001398  78.3690 309.2291 15.77639226  2984
SHIYAN-29               
1 65486U 25196A   25253.33080718 -.00000098  00000+0  00000+0 0  9995
2 65486  28.5143  22.0515 0090538 130.9534 153.7740  0.98866979    75
CZ-3C R/B               
1 65487U 25196B   25251.41819693  .00025655  00000+0  33348-2 0  9994
2 65487  28.4934  20.6057 6976947 130.0484 315.6750  2.68841397   106
2025-197A               
1 65488U 25197A   25251.16062515  .00005816  00000+0  26729-3 0  9994
2 65488  97.4119  76.9324 0014067 275.9123  84.0509 15.20666998   415
2025-197B               
1 65489U 25197B   25251.16057737  .00005565  00000+0  25580-3 0  9990
2 65489  97.4117  76.9325 0013220 277.6459  82.3275 15.20695336   404
